[{"OBJECT_NAME":"STARLINK-31903","OBJECT_ID":"2024-097L","EPOCH":"2026-03-09T12:47:10.501152","MEAN_MOTION":15.27567682,"ECCENTRICITY":8.479e-5,"INCLINATION":43.0009,"RA_OF_ASC_NODE":268.2455,"ARG_OF_PERICENTER":264.0258,"MEAN_ANOMALY":96.0497,"EPHEMERIS_TYPE":0,"CLASSIFICATION_TYPE":"U","NORAD_CAT_ID":59845,"ELEMENT_SET_NO":999,"REV_AT_EPOCH":10197,"BSTAR":1.9519105e-5,"MEAN_MOTION_DOT":2.75e-6,"MEAN_MOTION_DDOT":0},{"OBJECT_NAME":"HAWK-11B","OBJECT_ID":"2024-247C","EPOCH":"2026-03-09T10:44:06.809856","MEAN_MOTION":15.2884707,"ECCENTRICITY":0.00046902,"INCLINATION":45.0161,"RA_OF_ASC_NODE":115.761,"ARG_OF_PERICENTER":333.0326,"MEAN_ANOMALY":27.0314,"EPHEMERIS_TYPE":0,"CLASSIFICATION_TYPE":"U","NORAD_CAT_ID":62379,"ELEMENT_SET_NO":999,"REV_AT_EPOCH":6773,"BSTAR":0.00032841927,"MEAN_MOTION_DOT":9.093e-5,"MEAN_MOTION_DDOT":0}]
